{
  "type": "FeatureCollection",
  "features": [
    {
      "type": "Feature",
      "properties": {
        "norad_id": 37330,
        "name": "COSMOS 2251 DEB",
        "group": "cosmos-2251-debris",
        "lat": -50.14074812599376,
        "lon": 115.6082458062047,
        "alt_km": 715.7947891994145,
        "timestamp": "2025-12-22T23:36:21.114405+00:00",
        "meta_object_name": "COSMOS 2251 DEB",
        "meta_object_id": "1993-036BKW",
        "meta_epoch": "2025-12-20T12:58:19.659648",
        "meta_mean_motion": 14.5955958,
        "meta_eccentricity": 0.0056796,
        "meta_inclination": 74.0188,
        "meta_ra_of_asc_node": 280.1955,
        "meta_arg_of_pericenter": 126.4731,
        "meta_mean_anomaly": 234.1688,
        "meta_ephemeris_type": 0,
        "meta_classification_type": "U",
        "meta_norad_cat_id": 37330,
        "meta_element_set_no": 999,
        "meta_rev_at_epoch": 86482,
        "meta_bstar": 0.000194,
        "meta_mean_motion_dot": 9.12e-06,
        "meta_mean_motion_ddot": 0,
        "tle_line1": "1 37330U 93036BKW 25354.54050532  .00000912  00000+0  19400-3 0  9998",
        "tle_line2": "2 37330  74.0188 280.1955 0056796 126.4731 234.1688 14.59559580864824"
      },
      "geometry": {
        "type": "Point",
        "coordinates": [
          115.6082458062047,
          -50.14074812599376
        ]
      }
    },
    {
      "type": "Feature",
      "properties": {
        "norad_id": 37331,
        "name": "COSMOS 2251 DEB",
        "group": "cosmos-2251-debris",
        "lat": 7.5667165128474165,
        "lon": -133.03632168870524,
        "alt_km": 790.9088669553266,
        "timestamp": "2025-12-22T23:36:21.114415+00:00",
        "meta_object_name": "COSMOS 2251 DEB",
        "meta_object_id": "1993-036BKX",
        "meta_epoch": "2025-12-20T20:37:09.916320",
        "meta_mean_motion": 14.35041344,
        "meta_eccentricity": 0.0055285,
        "meta_inclination": 74.0747,
        "meta_ra_of_asc_node": 53.0207,
        "meta_arg_of_pericenter": 64.7623,
        "meta_mean_anomaly": 295.9246,
        "meta_ephemeris_type": 0,
        "meta_classification_type": "U",
        "meta_norad_cat_id": 37331,
        "meta_element_set_no": 999,
        "meta_rev_at_epoch": 84876,
        "meta_bstar": 0.00030498,
        "meta_mean_motion_dot": 8.59e-06,
        "meta_mean_motion_ddot": 0,
        "tle_line1": "1 37331U 93036BKX 25354.85914255  .00000859  00000+0  30498-3 0  9994",
        "tle_line2": "2 37331  74.0747  53.0207 0055285  64.7623 295.9246 14.35041344848767"
      },
      "geometry": {
        "type": "Point",
        "coordinates": [
          -133.03632168870524,
          7.5667165128474165
        ]
      }
    },
    {
      "type": "Feature",
      "properties": {
        "norad_id": 37336,
        "name": "COSMOS 2251 DEB",
        "group": "cosmos-2251-debris",
        "lat": 63.314169740366125,
        "lon": -12.783494426092933,
        "alt_km": 760.25253616805,
        "timestamp": "2025-12-22T23:36:21.114426+00:00",
        "meta_object_name": "COSMOS 2251 DEB",
        "meta_object_id": "1993-036BLC",
        "meta_epoch": "2025-12-17T07:33:13.175712",
        "meta_mean_motion": 14.32760586,
        "meta_eccentricity": 0.00290162,
        "meta_inclination": 74.0414,
        "meta_ra_of_asc_node": 322.8603,
        "meta_arg_of_pericenter": 39.1846,
        "meta_mean_anomaly": 321.1399,
        "meta_ephemeris_type": 0,
        "meta_classification_type": "U",
        "meta_norad_cat_id": 37336,
        "meta_element_set_no": 999,
        "meta_rev_at_epoch": 65185,
        "meta_bstar": 6.9199726e-05,
        "meta_mean_motion_dot": 1.63e-06,
        "meta_mean_motion_ddot": 0,
        "tle_line1": "1 37336U 93036BLC 25351.31473583  .00000163  00000+0  69200-4 0  9993",
        "tle_line2": "2 37336  74.0414 322.8603 0029016  39.1846 321.1399 14.32760586651852"
      },
      "geometry": {
        "type": "Point",
        "coordinates": [
          -12.783494426092933,
          63.314169740366125
        ]
      }
    },
    {
      "type": "Feature",
      "properties": {
        "norad_id": 37340,
        "name": "COSMOS 2251 DEB",
        "group": "cosmos-2251-debris",
        "lat": 72.23112068054797,
        "lon": -38.3263509451245,
        "alt_km": 761.6007100890074,
        "timestamp": "2025-12-22T23:36:21.114436+00:00",
        "meta_object_name": "COSMOS 2251 DEB",
        "meta_object_id": "1993-036BLG",
        "meta_epoch": "2025-12-19T03:19:36.196032",
        "meta_mean_motion": 14.36930541,
        "meta_eccentricity": 0.00180628,
        "meta_inclination": 74.0254,
        "meta_ra_of_asc_node": 265.3825,
        "meta_arg_of_pericenter": 358.9051,
        "meta_mean_anomaly": 1.206,
        "meta_ephemeris_type": 0,
        "meta_classification_type": "U",
        "meta_norad_cat_id": 37340,
        "meta_element_set_no": 999,
        "meta_rev_at_epoch": 84159,
        "meta_bstar": 0.00014760605,
        "meta_mean_motion_dot": 4.11e-06,
        "meta_mean_motion_ddot": 0,
        "tle_line1": "1 37340U 93036BLG 25353.13861338  .00000411  00000+0  14761-3 0  9996",
        "tle_line2": "2 37340  74.0254 265.3825 0018062 358.9051   1.2060 14.36930541841592"
      },
      "geometry": {
        "type": "Point",
        "coordinates": [
          -38.3263509451245,
          72.23112068054797
        ]
      }
    },
    {
      "type": "Feature",
      "properties": {
        "norad_id": 37483,
        "name": "COSMOS 2251 DEB",
        "group": "cosmos-2251-debris",
        "lat": 71.22484541613501,
        "lon": -178.0491157759001,
        "alt_km": 763.6210979009666,
        "timestamp": "2025-12-22T23:36:21.114446+00:00",
        "meta_object_name": "COSMOS 2251 DEB",
        "meta_object_id": "1993-036BLL",
        "meta_epoch": "2025-12-21T15:38:14.479872",
        "meta_mean_motion": 14.4356851,
        "meta_eccentricity": 0.0093538,
        "meta_inclination": 73.9739,
        "meta_ra_of_asc_node": 126.7087,
        "meta_arg_of_pericenter": 331.1922,
        "meta_mean_anomaly": 28.4086,
        "meta_ephemeris_type": 0,
        "meta_classification_type": "U",
        "meta_norad_cat_id": 37483,
        "meta_element_set_no": 999,
        "meta_rev_at_epoch": 65408,
        "meta_bstar": 0.00016297,
        "meta_mean_motion_dot": 5.52e-06,
        "meta_mean_motion_ddot": 0,
        "tle_line1": "1 37483U 93036BLL 25355.65155648  .00000552  00000+0  16297-3 0  9995",
        "tle_line2": "2 37483  73.9739 126.7087 0093538 331.1922  28.4086 14.43568510654083"
      },
      "geometry": {
        "type": "Point",
        "coordinates": [
          -178.0491157759001,
          71.22484541613501
        ]
      }
    },
    {
      "type": "Feature",
      "properties": {
        "norad_id": 37484,
        "name": "COSMOS 2251 DEB",
        "group": "cosmos-2251-debris",
        "lat": -72.66366081166436,
        "lon": 77.63543466677824,
        "alt_km": 738.2711588262773,
        "timestamp": "2025-12-22T23:36:21.114456+00:00",
        "meta_object_name": "COSMOS 2251 DEB",
        "meta_object_id": "1993-036BLM",
        "meta_epoch": "2025-12-18T07:38:27.570624",
        "meta_mean_motion": 14.41807924,
        "meta_eccentricity": 0.00394245,
        "meta_inclination": 73.8227,
        "meta_ra_of_asc_node": 197.9673,
        "meta_arg_of_pericenter": 231.9462,
        "meta_mean_anomaly": 306.1628,
        "meta_ephemeris_type": 0,
        "meta_classification_type": "U",
        "meta_norad_cat_id": 37484,
        "meta_element_set_no": 999,
        "meta_rev_at_epoch": 65459,
        "meta_bstar": 0.0005692289,
        "meta_mean_motion_dot": 1.85e-05,
        "meta_mean_motion_ddot": 0,
        "tle_line1": "1 37484U 93036BLM 25352.31837466  .00001850  00000+0  56923-3 0  9993",
        "tle_line2": "2 37484  73.8227 197.9673 0039424 231.9462 306.1628 14.41807924654593"
      },
      "geometry": {
        "type": "Point",
        "coordinates": [
          77.63543466677824,
          -72.66366081166436
        ]
      }
    },
    {
      "type": "Feature",
      "properties": {
        "norad_id": 37486,
        "name": "COSMOS 2251 DEB",
        "group": "cosmos-2251-debris",
        "lat": -12.354513675495822,
        "lon": -80.24643058749214,
        "alt_km": 956.0197131168989,
        "timestamp": "2025-12-22T23:36:21.114466+00:00",
        "meta_object_name": "COSMOS 2251 DEB",
        "meta_object_id": "1993-036BLP",
        "meta_epoch": "2025-12-22T01:29:57.186816",
        "meta_mean_motion": 14.13400204,
        "meta_eccentricity": 0.02307676,
        "meta_inclination": 73.6926,
        "meta_ra_of_asc_node": 97.742,
        "meta_arg_of_pericenter": 324.2908,
        "meta_mean_anomaly": 225.4892,
        "meta_ephemeris_type": 0,
        "meta_classification_type": "U",
        "meta_norad_cat_id": 37486,
        "meta_element_set_no": 999,
        "meta_rev_at_epoch": 63501,
        "meta_bstar": 0.0019350142,
        "meta_mean_motion_dot": 4.66e-05,
        "meta_mean_motion_ddot": 0,
        "tle_line1": "1 37486U 93036BLP 25356.06246744  .00004660  00000+0  19350-2 0  9998",
        "tle_line2": "2 37486  73.6926  97.7420 0230767 324.2908 225.4892 14.13400204635011"
      },
      "geometry": {
        "type": "Point",
        "coordinates": [
          -80.24643058749214,
          -12.354513675495822
        ]
      }
    }
  ]
}